STARLINK-2022           
1 47643U 21012Z   24201.36965459  .00000439  00000+0  48339-4 0  9992
2 47643  53.0534 217.5806 0001478 108.0852 252.0298 15.06395292190087
